[{"OBJECT_NAME":"UNKNOWN","OBJECT_ID":"","EPOCH":"2026-03-09T08:27:49.820544","MEAN_MOTION":13.19542552,"ECCENTRICITY":0.0119624,"INCLINATION":100.743,"RA_OF_ASC_NODE":271.3979,"ARG_OF_PERICENTER":165.8522,"MEAN_ANOMALY":194.5989,"EPHEMERIS_TYPE":0,"CLASSIFICATION_TYPE":"U","NORAD_CAT_ID":87771,"ELEMENT_SET_NO":999,"REV_AT_EPOCH":54651,"BSTAR":0.00035572,"MEAN_MOTION_DOT":1.01e-6,"MEAN_MOTION_DDOT":0},{"OBJECT_NAME":"UNKNOWN","OBJECT_ID":"","EPOCH":"2026-03-08T21:57:06.249888","MEAN_MOTION":13.00934866,"ECCENTRICITY":0.0056992,"INCLINATION":102.3677,"RA_OF_ASC_NODE":315.9887,"ARG_OF_PERICENTER":33.1874,"MEAN_ANOMALY":327.2778,"EPHEMERIS_TYPE":0,"CLASSIFICATION_TYPE":"U","NORAD_CAT_ID":87782,"ELEMENT_SET_NO":999,"REV_AT_EPOCH":57919,"BSTAR":0.014639,"MEAN_MOTION_DOT":4.448e-5,"MEAN_MOTION_DDOT":0},{"OBJECT_NAME":"UNKNOWN","OBJECT_ID":"","EPOCH":"2026-03-08T13:08:37.169088","MEAN_MOTION":13.1696465,"ECCENTRICITY":0.0246927,"INCLINATION":99.6563,"RA_OF_ASC_NODE":179.481,"ARG_OF_PERICENTER":164.5334,"MEAN_ANOMALY":196.3503,"EPHEMERIS_TYPE":0,"CLASSIFICATION_TYPE":"U","NORAD_CAT_ID":87843,"ELEMENT_SET_NO":999,"REV_AT_EPOCH":57545,"BSTAR":0.0051608,"MEAN_MOTION_DOT":2.283e-5,"MEAN_MOTION_DDOT":0},{"OBJECT_NAME":"UNKNOWN","OBJECT_ID":"","EPOCH":"2026-03-09T01:46:27.867360","MEAN_MOTION":12.89284526,"ECCENTRICITY":0.057995,"INCLINATION":98.8681,"RA_OF_ASC_NODE":13.6882,"ARG_OF_PERICENTER":54.8187,"MEAN_ANOMALY":310.5833,"EPHEMERIS_TYPE":0,"CLASSIFICATION_TYPE":"U","NORAD_CAT_ID":87845,"ELEMENT_SET_NO":999,"REV_AT_EPOCH":57633,"BSTAR":0.0073627,"MEAN_MOTION_DOT":3.987e-5,"MEAN_MOTION_DDOT":0},{"OBJECT_NAME":"UNKNOWN","OBJECT_ID":"","EPOCH":"2026-03-06T03:53:12.420384","MEAN_MOTION":14.4147804,"ECCENTRICITY":0.0034126,"INCLINATION":99.1604,"RA_OF_ASC_NODE":195.5646,"ARG_OF_PERICENTER":22.5413,"MEAN_ANOMALY":337.7264,"EPHEMERIS_TYPE":0,"CLASSIFICATION_TYPE":"U","NORAD_CAT_ID":87878,"ELEMENT_SET_NO":999,"REV_AT_EPOCH":62331,"BSTAR":0.0011384,"MEAN_MOTION_DOT":3.672e-5,"MEAN_MOTION_DDOT":0},{"OBJECT_NAME":"UNKNOWN","OBJECT_ID":"","EPOCH":"2026-03-07T18:09:48.202560","MEAN_MOTION":14.06051301,"ECCENTRICITY":0.0154006,"INCLINATION":98.7313,"RA_OF_ASC_NODE":172.6216,"ARG_OF_PERICENTER":188.6266,"MEAN_ANOMALY":171.2251,"EPHEMERIS_TYPE":0,"CLASSIFICATION_TYPE":"U","NORAD_CAT_ID":87884,"ELEMENT_SET_NO":999,"REV_AT_EPOCH":63031,"BSTAR":0.0001623,"MEAN_MOTION_DOT":2.54e-6,"MEAN_MOTION_DDOT":0},{"OBJECT_NAME":"UNKNOWN","OBJECT_ID":"","EPOCH":"2026-02-27T21:39:39.353184","MEAN_MOTION":12.35692323,"ECCENTRICITY":0.0895898,"INCLINATION":28.6287,"RA_OF_ASC_NODE":295.8565,"ARG_OF_PERICENTER":205.1452,"MEAN_ANOMALY":150.2727,"EPHEMERIS_TYPE":0,"CLASSIFICATION_TYPE":"U","NORAD_CAT_ID":87991,"ELEMENT_SET_NO":999,"REV_AT_EPOCH":53254,"BSTAR":0.0077235,"MEAN_MOTION_DOT":4.024e-5,"MEAN_MOTION_DDOT":0},{"OBJECT_NAME":"UNKNOWN","OBJECT_ID":"","EPOCH":"2026-03-08T11:40:27.292800","MEAN_MOTION":14.46279403,"ECCENTRICITY":0.019082,"INCLINATION":97.8424,"RA_OF_ASC_NODE":255.2478,"ARG_OF_PERICENTER":127.4178,"MEAN_ANOMALY":234.4554,"EPHEMERIS_TYPE":0,"CLASSIFICATION_TYPE":"U","NORAD_CAT_ID":89005,"ELEMENT_SET_NO":999,"REV_AT_EPOCH":54648,"BSTAR":0.0012046,"MEAN_MOTION_DOT":5.372e-5,"MEAN_MOTION_DDOT":0},{"OBJECT_NAME":"UNKNOWN","OBJECT_ID":"","EPOCH":"2026-03-09T15:19:13.374336","MEAN_MOTION":13.04039918,"ECCENTRICITY":0.0146757,"INCLINATION":100.4746,"RA_OF_ASC_NODE":7.614,"ARG_OF_PERICENTER":274.7181,"MEAN_ANOMALY":83.7178,"EPHEMERIS_TYPE":0,"CLASSIFICATION_TYPE":"U","NORAD_CAT_ID":89101,"ELEMENT_SET_NO":999,"REV_AT_EPOCH":56617,"BSTAR":-0.00022144,"MEAN_MOTION_DOT":-1.19e-6,"MEAN_MOTION_DDOT":0},{"OBJECT_NAME":"UNKNOWN","OBJECT_ID":"","EPOCH":"2026-03-04T16:35:41.265312","MEAN_MOTION":8.87935431,"ECCENTRICITY":0.2928485,"INCLINATION":63.4369,"RA_OF_ASC_NODE":315.1227,"ARG_OF_PERICENTER":319.6759,"MEAN_ANOMALY":21.9524,"EPHEMERIS_TYPE":0,"CLASSIFICATION_TYPE":"U","NORAD_CAT_ID":89132,"ELEMENT_SET_NO":999,"REV_AT_EPOCH":33238,"BSTAR":0.0064725,"MEAN_MOTION_DOT":4.978e-5,"MEAN_MOTION_DDOT":0},{"OBJECT_NAME":"UNKNOWN","OBJECT_ID":"","EPOCH":"2026-03-08T18:55:07.623552","MEAN_MOTION":14.63991507,"ECCENTRICITY":0.0092361,"INCLINATION":98.2534,"RA_OF_ASC_NODE":1.5876,"ARG_OF_PERICENTER":144.9706,"MEAN_ANOMALY":215.7618,"EPHEMERIS_TYPE":0,"CLASSIFICATION_TYPE":"U","NORAD_CAT_ID":89146,"ELEMENT_SET_NO":999,"REV_AT_EPOCH":64146,"BSTAR":0.0008742,"MEAN_MOTION_DOT":4.823e-5,"MEAN_MOTION_DDOT":0},{"OBJECT_NAME":"UNKNOWN","OBJECT_ID":"","EPOCH":"2026-03-09T00:48:08.930880","MEAN_MOTION":15.7514874,"ECCENTRICITY":0.0019769,"INCLINATION":97.6379,"RA_OF_ASC_NODE":94.4029,"ARG_OF_PERICENTER":114.9652,"MEAN_ANOMALY":245.3669,"EPHEMERIS_TYPE":0,"CLASSIFICATION_TYPE":"U","NORAD_CAT_ID":89161,"ELEMENT_SET_NO":999,"REV_AT_EPOCH":56197,"BSTAR":0.0042433,"MEAN_MOTION_DOT":0.00691245,"MEAN_MOTION_DDOT":0},{"OBJECT_NAME":"UNKNOWN","OBJECT_ID":"","EPOCH":"2026-03-04T22:11:39.610464","MEAN_MOTION":14.49090755,"ECCENTRICITY":0.0282259,"INCLINATION":82.0644,"RA_OF_ASC_NODE":144.6703,"ARG_OF_PERICENTER":28.1067,"MEAN_ANOMALY":333.504,"EPHEMERIS_TYPE":0,"CLASSIFICATION_TYPE":"U","NORAD_CAT_ID":89172,"ELEMENT_SET_NO":999,"REV_AT_EPOCH":61378,"BSTAR":0.001137,"MEAN_MOTION_DOT":7.23e-5,"MEAN_MOTION_DDOT":0},{"OBJECT_NAME":"UNKNOWN","OBJECT_ID":"","EPOCH":"2026-03-09T14:06:35.511264","MEAN_MOTION":13.81705517,"ECCENTRICITY":0.0129731,"INCLINATION":99.2177,"RA_OF_ASC_NODE":342.6886,"ARG_OF_PERICENTER":285.9663,"MEAN_ANOMALY":72.7231,"EPHEMERIS_TYPE":0,"CLASSIFICATION_TYPE":"U","NORAD_CAT_ID":89183,"ELEMENT_SET_NO":999,"REV_AT_EPOCH":61896,"BSTAR":0.00058562,"MEAN_MOTION_DOT":6.23e-6,"MEAN_MOTION_DDOT":0},{"OBJECT_NAME":"UNKNOWN","OBJECT_ID":"","EPOCH":"2026-03-08T20:59:50.260128","MEAN_MOTION":14.86306977,"ECCENTRICITY":0.0007146,"INCLINATION":98.387,"RA_OF_ASC_NODE":301.9193,"ARG_OF_PERICENTER":210.7655,"MEAN_ANOMALY":149.3141,"EPHEMERIS_TYPE":0,"CLASSIFICATION_TYPE":"U","NORAD_CAT_ID":89184,"ELEMENT_SET_NO":999,"REV_AT_EPOCH":50494,"BSTAR":0.004564,"MEAN_MOTION_DOT":0.00040365,"MEAN_MOTION_DDOT":0},{"OBJECT_NAME":"UNKNOWN","OBJECT_ID":"","EPOCH":"2026-03-08T11:21:41.929344","MEAN_MOTION":13.91703847,"ECCENTRICITY":0.0226488,"INCLINATION":98.7717,"RA_OF_ASC_NODE":301.097,"ARG_OF_PERICENTER":251.1413,"MEAN_ANOMALY":106.5065,"EPHEMERIS_TYPE":0,"CLASSIFICATION_TYPE":"U","NORAD_CAT_ID":89213,"ELEMENT_SET_NO":999,"REV_AT_EPOCH":46459,"BSTAR":0.00037526,"MEAN_MOTION_DOT":5.45e-6,"MEAN_MOTION_DDOT":0},{"OBJECT_NAME":"UNKNOWN","OBJECT_ID":"","EPOCH":"2026-03-09T15:44:24.292608","MEAN_MOTION":9.27175582,"ECCENTRICITY":0.2824527,"INCLINATION":62.475,"RA_OF_ASC_NODE":249.5713,"ARG_OF_PERICENTER":108.7875,"MEAN_ANOMALY":283.767,"EPHEMERIS_TYPE":0,"CLASSIFICATION_TYPE":"U","NORAD_CAT_ID":89251,"ELEMENT_SET_NO":999,"REV_AT_EPOCH":38123,"BSTAR":0.012568,"MEAN_MOTION_DOT":0.00022231,"MEAN_MOTION_DDOT":0}]
