UNKNOWN                 
1 87771U          26068.35265996  .00000101  00000+0  35572-3 0  9993
2 87771 100.7430 271.3979 0119624 165.8522 194.5989 13.19542552546510
UNKNOWN                 
1 87782U          26067.91465567  .00004448  00000+0  14639-1 0  9999
2 87782 102.3677 315.9887 0056992  33.1874 327.2778 13.00934866579195
UNKNOWN                 
1 87843U          26067.54765242  .00002283  00000+0  51608-2 0  9992
2 87843  99.6563 179.4810 0246927 164.5334 196.3503 13.16964650575450
UNKNOWN                 
1 87845U          26068.07393365  .00003987  00000+0  73627-2 0  9993
2 87845  98.8681  13.6882 0579950  54.8187 310.5833 12.89284526576334
UNKNOWN                 
1 87878U          26065.16194931  .00003672  00000+0  11384-2 0  9997
2 87878  99.1604 195.5646 0034126  22.5413 337.7264 14.41478040623318
UNKNOWN                 
1 87884U          26066.75680790  .00000254  00000+0  16230-3 0  9992
2 87884  98.7313 172.6216 0154006 188.6266 171.2251 14.06051301630319
UNKNOWN                 
1 87991U          26058.90253881  .00004024  00000+0  77235-2 0  9996
2 87991  28.6287 295.8565 0895898 205.1452 150.2727 12.35692323532544
UNKNOWN                 
1 89005U          26067.48642700  .00005372  00000+0  12046-2 0  9995
2 89005  97.8424 255.2478 0190820 127.4178 234.4554 14.46279403546485
UNKNOWN                 
1 89101U          26068.63834924 -.00000119  00000+0 -22144-3 0  9998
2 89101 100.4746   7.6140 0146757 274.7181  83.7178 13.04039918566178
UNKNOWN                 
1 89132U          26063.69144983  .00004978  00000+0  64725-2 0  9997
2 89132  63.4369 315.1227 2928485 319.6759  21.9524  8.87935431332385
UNKNOWN                 
1 89146U          26067.78828268  .00004823  00000+0  87420-3 0  9998
2 89146  98.2534   1.5876 0092361 144.9706 215.7618 14.63991507641466
UNKNOWN                 
1 89161U          26068.03343670  .00691245  00000+0  42433-2 0  9997
2 89161  97.6379  94.4029 0019769 114.9652 245.3669 15.75148740561971
UNKNOWN                 
1 89172U          26063.92476401  .00007230  00000+0  11370-2 0  9992
2 89172  82.0644 144.6703 0282259  28.1067 333.5040 14.49090755613787
UNKNOWN                 
1 89183U          26068.58791101  .00000623  00000+0  58562-3 0  9992
2 89183  99.2177 342.6886 0129731 285.9663  72.7231 13.81705517618965
UNKNOWN                 
1 89184U          26067.87488727  .00040365  00000+0  45640-2 0  9990
2 89184  98.3870 301.9193 0007146 210.7655 149.3141 14.86306977504943
UNKNOWN                 
1 89213U          26067.47340196  .00000545  00000+0  37526-3 0  9997
2 89213  98.7717 301.0970 0226488 251.1413 106.5065 13.91703847464595
UNKNOWN                 
1 89251U          26068.65583672  .00022231  00000+0  12568-1 0  9991
2 89251  62.4750 249.5713 2824527 108.7875 283.7670  9.27175582381234
